*******************************************************************************
Ephemeris / WWW_USER Mon Mar 24 11:11:56 2025 Pasadena, USA      / Horizons    
*******************************************************************************
Target body name: (2019 AU)                       {source: JPL#11}
Center body name: Earth (399)                     {source: DE441}
Center-site name: Mauna Kea
*******************************************************************************
Start time      : A.D. 2018-Aug-22 04:55:00.0000 UT      
Stop  time      : A.D. 2018-Aug-22 15:54:00.0000 UT      
Step-size       : 1 minutes
*******************************************************************************
Target pole/equ : undefined
Target radii    : undefined                                                    
Center geodetic : 204.5278, 19.8260847, 4.21024   {E-lon(deg),Lat(deg),Alt(km)}
Center cylindric: 204.5278, 6006.35451, 2151.0229 {E-lon(deg),Dxy(km),Dz(km)}
Center pole/equ : ITRF93                          {East-longitude positive}
Center radii    : 6378.137, 6378.137, 6356.752 km {Equator_a, b, pole_c}       
Target primary  : Sun
Vis. interferer : MOON (R_eq= 1737.400) km        {source: DE441}
Rel. light bend : Sun                             {source: DE441}
Rel. lght bnd GM: 1.3271E+11 km^3/s^2                                          
Small-body perts: Yes                             {source: SB441-N16}
Atmos refraction: NO (AIRLESS)
RA format       : HMS
Time format     : CAL 
Calendar mode   : Mixed Julian/Gregorian
RTS-only print  : NO       
EOP file        : eop.250321.p250617                                           
EOP coverage    : DATA-BASED 1962-JAN-20 TO 2025-MAR-21. PREDICTS-> 2025-JUN-16
Units conversion: 1 au= 149597870.700 km, c= 299792.458 km/s, 1 day= 86400.0 s 
Table cut-offs 1: Elevation (-90.0deg=NO ),Airmass (>38.000=NO), Daylight (YES)
Table cut-offs 2: Solar elongation (  0.0,180.0=NO ),Local Hour Angle( 0.0=NO )
Table cut-offs 3: RA/DEC angular rate (     0.0=NO )                           
*******************************************************************************
Initial IAU76/J2000 heliocentric ecliptic osculating elements (au, days, deg.):
  EPOCH=  2458490.5 ! 2019-Jan-07.00 (TDB)         Residual RMS= .17143        
   EC= .1028488096127525   QR= .9927870416208908   TP= 2458466.0562707144      
   OM= 109.6543146265929   W=  330.7265060973358   IN= 5.020660041219873       
  Equivalent ICRF heliocentric cartesian coordinates (au, au/d):
   X=-2.730606646751524E-01  Y= 8.866895536052930E-01  Z= 3.780071563225811E-01
  VX=-1.742089442644723E-02 VY=-4.449382429672076E-03 VZ=-2.237797348809624E-04
Asteroid physical parameters (km, seconds, rotational period in hours):        
   GM= n.a.                RAD= n.a.               ROTPER= n.a.                
   H= 26.7                 G= .150                 B-V= n.a.                   
                           ALBEDO= n.a.            STYP= n.a.                  
*******************************************************************************
 Date__(UT)__HR:MN     R.A._________(ICRF)_________DEC
******************************************************
$$SOE
 2018-Aug-22 09:01  m  00 52 24.690251 -23 15 47.80385
 2018-Aug-22 09:02  m  00 52 24.765911 -23 15 49.52671
 2018-Aug-22 09:03  m  00 52 24.841500 -23 15 51.24941
 2018-Aug-22 09:04  m  00 52 24.917021 -23 15 52.97194
 2018-Aug-22 09:05  m  00 52 24.992472 -23 15 54.69430
 2018-Aug-22 09:06  m  00 52 25.067853 -23 15 56.41649
 2018-Aug-22 09:07  m  00 52 25.143166 -23 15 58.13851
 2018-Aug-22 09:08  m  00 52 25.218410 -23 15 59.86036
 2018-Aug-22 09:09  m  00 52 25.293585 -23 16 01.58203
 2018-Aug-22 09:10  m  00 52 25.368692 -23 16 03.30352
 2018-Aug-22 09:11  m  00 52 25.443730 -23 16 05.02483
 2018-Aug-22 09:12  m  00 52 25.518700 -23 16 06.74597
 2018-Aug-22 09:13  m  00 52 25.593602 -23 16 08.46692
 2018-Aug-22 09:14  m  00 52 25.668436 -23 16 10.18769
 2018-Aug-22 09:15  m  00 52 25.743203 -23 16 11.90828
 2018-Aug-22 09:16  m  00 52 25.817901 -23 16 13.62868
 2018-Aug-22 09:17  m  00 52 25.892533 -23 16 15.34889
 2018-Aug-22 09:18  m  00 52 25.967097 -23 16 17.06891
 2018-Aug-22 09:19  m  00 52 26.041594 -23 16 18.78874
 2018-Aug-22 09:20  m  00 52 26.116025 -23 16 20.50837
 2018-Aug-22 09:21  m  00 52 26.190389 -23 16 22.22782
 2018-Aug-22 09:22  m  00 52 26.264686 -23 16 23.94706
 2018-Aug-22 09:23  m  00 52 26.338917 -23 16 25.66611
 2018-Aug-22 09:24  m  00 52 26.413081 -23 16 27.38496
 2018-Aug-22 09:25  m  00 52 26.487180 -23 16 29.10361
 2018-Aug-22 09:26  m  00 52 26.561213 -23 16 30.82206
 2018-Aug-22 09:27  m  00 52 26.635180 -23 16 32.54030
 2018-Aug-22 09:28  m  00 52 26.709082 -23 16 34.25834
 2018-Aug-22 09:29  m  00 52 26.782919 -23 16 35.97617
 2018-Aug-22 09:30  m  00 52 26.856691 -23 16 37.69379
 2018-Aug-22 09:31  m  00 52 26.930398 -23 16 39.41120
 2018-Aug-22 09:32  m  00 52 27.004040 -23 16 41.12840
 2018-Aug-22 09:33  m  00 52 27.077618 -23 16 42.84538
 2018-Aug-22 09:34  m  00 52 27.151131 -23 16 44.56215
 2018-Aug-22 09:35  m  00 52 27.224581 -23 16 46.27871
 2018-Aug-22 09:36  m  00 52 27.297966 -23 16 47.99505
 2018-Aug-22 09:37  m  00 52 27.371288 -23 16 49.71117
 2018-Aug-22 09:38  m  00 52 27.444546 -23 16 51.42706
 2018-Aug-22 09:39  m  00 52 27.517741 -23 16 53.14274
 2018-Aug-22 09:40  m  00 52 27.590873 -23 16 54.85819
 2018-Aug-22 09:41  m  00 52 27.663942 -23 16 56.57341
 2018-Aug-22 09:42  m  00 52 27.736948 -23 16 58.28841
 2018-Aug-22 09:43  m  00 52 27.809892 -23 17 00.00318
 2018-Aug-22 09:44  m  00 52 27.882773 -23 17 01.71772
 2018-Aug-22 09:45  m  00 52 27.955593 -23 17 03.43203
 2018-Aug-22 09:46  m  00 52 28.028350 -23 17 05.14611
 2018-Aug-22 09:47  m  00 52 28.101046 -23 17 06.85995
 2018-Aug-22 09:48  m  00 52 28.173681 -23 17 08.57356
 2018-Aug-22 09:49  m  00 52 28.246254 -23 17 10.28693
 2018-Aug-22 09:50  m  00 52 28.318766 -23 17 12.00006
 2018-Aug-22 09:51  m  00 52 28.391217 -23 17 13.71295
 2018-Aug-22 09:52  m  00 52 28.463608 -23 17 15.42559
 2018-Aug-22 09:53  m  00 52 28.535938 -23 17 17.13800
 2018-Aug-22 09:54  m  00 52 28.608208 -23 17 18.85016
 2018-Aug-22 09:55  m  00 52 28.680418 -23 17 20.56208
 2018-Aug-22 09:56  m  00 52 28.752569 -23 17 22.27374
 2018-Aug-22 09:57  m  00 52 28.824660 -23 17 23.98516
 2018-Aug-22 09:58  m  00 52 28.896691 -23 17 25.69633
 2018-Aug-22 09:59  m  00 52 28.968663 -23 17 27.40725
 2018-Aug-22 10:00  m  00 52 29.040577 -23 17 29.11791
 2018-Aug-22 10:01  m  00 52 29.112432 -23 17 30.82832
 2018-Aug-22 10:02  m  00 52 29.184228 -23 17 32.53848
 2018-Aug-22 10:03  m  00 52 29.255967 -23 17 34.24837
 2018-Aug-22 10:04  m  00 52 29.327647 -23 17 35.95801
 2018-Aug-22 10:05  m  00 52 29.399270 -23 17 37.66739
 2018-Aug-22 10:06  m  00 52 29.470835 -23 17 39.37651
 2018-Aug-22 10:07  m  00 52 29.542343 -23 17 41.08536
 2018-Aug-22 10:08  m  00 52 29.613794 -23 17 42.79395
 2018-Aug-22 10:09  m  00 52 29.685188 -23 17 44.50228
 2018-Aug-22 10:10  m  00 52 29.756525 -23 17 46.21033
 2018-Aug-22 10:11  m  00 52 29.827806 -23 17 47.91812
 2018-Aug-22 10:12  m  00 52 29.899031 -23 17 49.62564
 2018-Aug-22 10:13  m  00 52 29.970200 -23 17 51.33289
 2018-Aug-22 10:14  m  00 52 30.041314 -23 17 53.03987
 2018-Aug-22 10:15  m  00 52 30.112372 -23 17 54.74657
 2018-Aug-22 10:16  m  00 52 30.183375 -23 17 56.45300
 2018-Aug-22 10:17  m  00 52 30.254323 -23 17 58.15915
 2018-Aug-22 10:18  m  00 52 30.325216 -23 17 59.86503
 2018-Aug-22 10:19  m  00 52 30.396055 -23 18 01.57063
 2018-Aug-22 10:20  m  00 52 30.466840 -23 18 03.27594
 2018-Aug-22 10:21  m  00 52 30.537571 -23 18 04.98098
 2018-Aug-22 10:22  m  00 52 30.608248 -23 18 06.68573
 2018-Aug-22 10:23  m  00 52 30.678872 -23 18 08.39020
 2018-Aug-22 10:24  m  00 52 30.749442 -23 18 10.09438
 2018-Aug-22 10:25  m  00 52 30.819960 -23 18 11.79828
 2018-Aug-22 10:26  m  00 52 30.890425 -23 18 13.50188
 2018-Aug-22 10:27  m  00 52 30.960837 -23 18 15.20520
 2018-Aug-22 10:28  m  00 52 31.031197 -23 18 16.90823
 2018-Aug-22 10:29  m  00 52 31.101506 -23 18 18.61097
 2018-Aug-22 10:30  m  00 52 31.171762 -23 18 20.31341
 2018-Aug-22 10:31  m  00 52 31.241968 -23 18 22.01557
 2018-Aug-22 10:32  m  00 52 31.312122 -23 18 23.71742
 2018-Aug-22 10:33  m  00 52 31.382225 -23 18 25.41898
 2018-Aug-22 10:34  m  00 52 31.452277 -23 18 27.12024
 2018-Aug-22 10:35  m  00 52 31.522280 -23 18 28.82120
 2018-Aug-22 10:36  m  00 52 31.592232 -23 18 30.52187
 2018-Aug-22 10:37  m  00 52 31.662134 -23 18 32.22223
 2018-Aug-22 10:38  m  00 52 31.731986 -23 18 33.92229
 2018-Aug-22 10:39  m  00 52 31.801789 -23 18 35.62204
 2018-Aug-22 10:40  m  00 52 31.871544 -23 18 37.32149
 2018-Aug-22 10:41  m  00 52 31.941249 -23 18 39.02064
 2018-Aug-22 10:42  m  00 52 32.010906 -23 18 40.71947
 2018-Aug-22 10:43  m  00 52 32.080514 -23 18 42.41800
 2018-Aug-22 10:44  m  00 52 32.150075 -23 18 44.11622
 2018-Aug-22 10:45  m  00 52 32.219587 -23 18 45.81413
 2018-Aug-22 10:46  m  00 52 32.289053 -23 18 47.51172
 2018-Aug-22 10:47  m  00 52 32.358471 -23 18 49.20901
 2018-Aug-22 10:48  m  00 52 32.427842 -23 18 50.90598
 2018-Aug-22 10:49  m  00 52 32.497166 -23 18 52.60263
 2018-Aug-22 10:50  m  00 52 32.566444 -23 18 54.29897
 2018-Aug-22 10:51  m  00 52 32.635676 -23 18 55.99499
 2018-Aug-22 10:52  m  00 52 32.704863 -23 18 57.69069
 2018-Aug-22 10:53  m  00 52 32.774003 -23 18 59.38607
 2018-Aug-22 10:54  m  00 52 32.843099 -23 19 01.08113
 2018-Aug-22 10:55  m  00 52 32.912149 -23 19 02.77587
 2018-Aug-22 10:56  m  00 52 32.981154 -23 19 04.47029
 2018-Aug-22 10:57  m  00 52 33.050116 -23 19 06.16438
 2018-Aug-22 10:58  m  00 52 33.119033 -23 19 07.85815
 2018-Aug-22 10:59  m  00 52 33.187906 -23 19 09.55159
 2018-Aug-22 11:00  m  00 52 33.256735 -23 19 11.24470
 2018-Aug-22 11:01  m  00 52 33.325521 -23 19 12.93749
 2018-Aug-22 11:02  m  00 52 33.394265 -23 19 14.62995
 2018-Aug-22 11:03  m  00 52 33.462965 -23 19 16.32207
